start=new Date('2022-08-04T00:00:00.000Z').valueOf();
sats=[{"MEAN_MOTION":"15.06401415","APOAPSIS":"548.415","TIME_SYSTEM":"UTC","FILE":"3527951","OBJECT_ID":"2021-038M","ELEMENT_SET_NO":"999","MEAN_ELEMENT_THEORY":"SGP4","NORAD_CAT_ID":"48364","SITE":"AFETR","PERIOD":"95.592","SEMIMAJOR_AXIS":"6925.344","RCS_SIZE":"LARGE","TLE_LINE2":"2 48364  53.0546 137.9521 0001741  67.1297 292.9876 15.06401415 69558","CENTER_NAME":"EARTH","PERIAPSIS":"546.004","OBJECT_NAME":"STARLINK-2611","CLASSIFICATION_TYPE":"U","TLE_LINE1":"1 48364U 21038M   22215.16539923  .00000429  00000-0  47669-4 0  9990","OBJECT_TYPE":"PAYLOAD","GP_ID":"209462191","INCLINATION":"53.0546","EPHEMERIS_TYPE":"0","REF_FRAME":"TEME","MEAN_MOTION_DOT":"0.00000429","ECCENTRICITY":"0.00017410","LAUNCH_DATE":"2021-05-04","EPOCH":"2022-08-03T03:58:10.493472","ARG_OF_PERICENTER":"67.1297","MEAN_ANOMALY":"292.9876","COUNTRY_CODE":"US","MEAN_MOTION_DDOT":"0.0000000000000","BSTAR":"0.00004766900000","DECAY_DATE":null,"RA_OF_ASC_NODE":"137.9521","REV_AT_EPOCH":"6955"},{"REV_AT_EPOCH":"6895","RA_OF_ASC_NODE":"138.2333","MEAN_MOTION_DDOT":"0.0000000000000","BSTAR":"0.00003247700000","DECAY_DATE":null,"MEAN_ANOMALY":"280.5382","COUNTRY_CODE":"US","ARG_OF_PERICENTER":"79.5787","LAUNCH_DATE":"2021-05-04","EPOCH":"2022-08-03T01:24:13.586976","ECCENTRICITY":"0.00015970","EPHEMERIS_TYPE":"0","INCLINATION":"53.0537","REF_FRAME":"TEME","MEAN_MOTION_DOT":"0.00000202","GP_ID":"209493523","CLASSIFICATION_TYPE":"U","TLE_LINE1":"1 48365U 21038N   22215.05849059  .00000202  00000-0  32477-4 0  9993","OBJECT_TYPE":"PAYLOAD","TLE_LINE2":"2 48365  53.0537 138.2333 0001597  79.5787 280.5382 15.06398409 68950","CENTER_NAME":"EARTH","PERIAPSIS":"546.112","OBJECT_NAME":"STARLINK-2608","RCS_SIZE":"LARGE","SEMIMAJOR_AXIS":"6925.353","PERIOD":"95.592","MEAN_ELEMENT_THEORY":"SGP4","NORAD_CAT_ID":"48365","SITE":"AFETR","MEAN_MOTION":"15.06398409","APOAPSIS":"548.324","TIME_SYSTEM":"UTC","OBJECT_ID":"2021-038N","FILE":"3528364","ELEMENT_SET_NO":"999"},{"REV_AT_EPOCH":"6903","RA_OF_ASC_NODE":"132.7023","DECAY_DATE":null,"BSTAR":"0.00004903300000","MEAN_MOTION_DDOT":"0.0000000000000","COUNTRY_CODE":"US","MEAN_ANOMALY":"277.7917","ARG_OF_PERICENTER":"82.3255","EPOCH":"2022-08-03T04:17:22.550208","LAUNCH_DATE":"2021-05-04","ECCENTRICITY":"0.00016110","MEAN_MOTION_DOT":"0.00000449","REF_FRAME":"TEME","EPHEMERIS_TYPE":"0","INCLINATION":"53.0564","GP_ID":"209494222","OBJECT_TYPE":"PAYLOAD","TLE_LINE1":"1 48366U 21038P   22215.17873322  .00000449  00000-0  49033-4 0  9996","CLASSIFICATION_TYPE":"U","OBJECT_NAME":"STARLINK-2631","PERIAPSIS":"546.076","CENTER_NAME":"EARTH","TLE_LINE2":"2 48366  53.0564 132.7023 0001611  82.3255 277.7917 15.06407146 69036","RCS_SIZE":"LARGE","SEMIMAJOR_AXIS":"6925.327","PERIOD":"95.592","NORAD_CAT_ID":"48366","SITE":"AFETR","MEAN_ELEMENT_THEORY":"SGP4","OBJECT_ID":"2021-038P","FILE":"3528364","ELEMENT_SET_NO":"999","MEAN_MOTION":"15.06407146","APOAPSIS":"548.307","TIME_SYSTEM":"UTC"},{"OBJECT_NAME":"STARLINK-2643","TLE_LINE2":"2 48367  53.0542 132.7154 0001632  77.8810 282.2361 15.06399605 69031","PERIAPSIS":"546.085","CENTER_NAME":"EARTH","RCS_SIZE":"LARGE","GP_ID":"209492522","OBJECT_TYPE":"PAYLOAD","CLASSIFICATION_TYPE":"U","TLE_LINE1":"1 48367U 21038Q   22215.17505146  .00001146  00000-0  95837-4 0  9991","SITE":"AFETR","NORAD_CAT_ID":"48367","MEAN_ELEMENT_THEORY":"SGP4","OBJECT_ID":"2021-038Q","FILE":"3528364","ELEMENT_SET_NO":"999","APOAPSIS":"548.345","TIME_SYSTEM":"UTC","MEAN_MOTION":"15.06399605","SEMIMAJOR_AXIS":"6925.350","PERIOD":"95.592","COUNTRY_CODE":"US","MEAN_ANOMALY":"282.2361","RA_OF_ASC_NODE":"132.7154","REV_AT_EPOCH":"6903","MEAN_MOTION_DDOT":"0.0000000000000","BSTAR":"0.00009583700000","DECAY_DATE":null,"ECCENTRICITY":"0.00016320","REF_FRAME":"TEME","MEAN_MOTION_DOT":"0.00001146","EPHEMERIS_TYPE":"0","INCLINATION":"53.0542","ARG_OF_PERICENTER":"77.8810","EPOCH":"2022-08-03T04:12:04.446144","LAUNCH_DATE":"2021-05-04"},{"DECAY_DATE":null,"BSTAR":"0.00003655100000","MEAN_MOTION_DDOT":"0.0000000000000","REV_AT_EPOCH":"6967","RA_OF_ASC_NODE":"131.5995","COUNTRY_CODE":"US","MEAN_ANOMALY":"287.5446","EPOCH":"2022-08-03T11:37:59.030400","LAUNCH_DATE":"2021-05-04","ARG_OF_PERICENTER":"72.5773","MEAN_MOTION_DOT":"0.00000263","REF_FRAME":"TEME","INCLINATION":"53.0562","EPHEMERIS_TYPE":"0","ECCENTRICITY":"0.00021100","OBJECT_TYPE":"PAYLOAD","TLE_LINE1":"1 48368U 21038R   22215.48471100  .00000263  00000-0  36551-4 0  9995","CLASSIFICATION_TYPE":"U","GP_ID":"209498169","RCS_SIZE":"LARGE","OBJECT_NAME":"STARLINK-2623","PERIAPSIS":"545.780","CENTER_NAME":"EARTH","TLE_LINE2":"2 48368  53.0562 131.5995 0002110  72.5773 287.5446 15.06390830 69679","SEMIMAJOR_AXIS":"6925.377","PERIOD":"95.593","ELEMENT_SET_NO":"999","FILE":"3528410","OBJECT_ID":"2021-038R","APOAPSIS":"548.703","MEAN_MOTION":"15.06390830","TIME_SYSTEM":"UTC","SITE":"AFETR","NORAD_CAT_ID":"48368","MEAN_ELEMENT_THEORY":"SGP4"},{"RA_OF_ASC_NODE":"132.7313","REV_AT_EPOCH":"6903","DECAY_DATE":null,"BSTAR":"0.00004023200000","MEAN_MOTION_DDOT":"0.0000000000000","COUNTRY_CODE":"US","MEAN_ANOMALY":"295.5417","ARG_OF_PERICENTER":"64.5749","EPOCH":"2022-08-03T04:06:46.428480","LAUNCH_DATE":"2021-05-04","ECCENTRICITY":"0.00017140","MEAN_MOTION_DOT":"0.00000318","REF_FRAME":"TEME","EPHEMERIS_TYPE":"0","INCLINATION":"53.0552","GP_ID":"209494024","OBJECT_TYPE":"PAYLOAD","TLE_LINE1":"1 48369U 21038S   22215.17137070  .00000318  00000-0  40232-4 0  9999","CLASSIFICATION_TYPE":"U","OBJECT_NAME":"STARLINK-2641","PERIAPSIS":"546.042","CENTER_NAME":"EARTH","TLE_LINE2":"2 48369  53.0552 132.7313 0001714  64.5749 295.5417 15.06394861 69034","RCS_SIZE":"LARGE","SEMIMAJOR_AXIS":"6925.364","PERIOD":"95.592","SITE":"AFETR","NORAD_CAT_ID":"48369","MEAN_ELEMENT_THEORY":"SGP4","FILE":"3528364","OBJECT_ID":"2021-038S","ELEMENT_SET_NO":"999","TIME_SYSTEM":"UTC","APOAPSIS":"548.416","MEAN_MOTION":"15.06394861"},{"SEMIMAJOR_AXIS":"6925.341","PERIOD":"95.592","APOAPSIS":"548.516","MEAN_MOTION":"15.06402393","TIME_SYSTEM":"UTC","ELEMENT_SET_NO":"999","FILE":"3528364","OBJECT_ID":"2021-038T","MEAN_ELEMENT_THEORY":"SGP4","NORAD_CAT_ID":"48370","SITE":"AFETR","TLE_LINE1":"1 48370U 21038T   22215.16768784 -.00001051  00000-0 -51647-4 0  9991","CLASSIFICATION_TYPE":"U","OBJECT_TYPE":"PAYLOAD","GP_ID":"209493722","RCS_SIZE":"LARGE","CENTER_NAME":"EARTH","PERIAPSIS":"545.897","TLE_LINE2":"2 48370  53.0544 132.7444 0001891  70.3020 289.8172 15.06402393 69039","OBJECT_NAME":"STARLINK-2621","LAUNCH_DATE":"2021-05-04","EPOCH":"2022-08-03T04:01:28.229376","ARG_OF_PERICENTER":"70.3020","EPHEMERIS_TYPE":"0","INCLINATION":"53.0544","MEAN_MOTION_DOT":"-0.00001051","REF_FRAME":"TEME","ECCENTRICITY":"0.00018910","BSTAR":"-0.00005164700000","DECAY_DATE":null,"MEAN_MOTION_DDOT":"0.0000000000000","REV_AT_EPOCH":"6903","RA_OF_ASC_NODE":"132.7444","MEAN_ANOMALY":"289.8172","COUNTRY_CODE":"US"},{"LAUNCH_DATE":"2021-05-04","EPOCH":"2022-08-03T03:56:09.662208","ARG_OF_PERICENTER":"74.1037","EPHEMERIS_TYPE":"0","INCLINATION":"53.0552","REF_FRAME":"TEME","MEAN_MOTION_DOT":"-0.00000157","ECCENTRICITY":"0.00017350","MEAN_MOTION_DDOT":"0.0000000000000","DECAY_DATE":null,"BSTAR":"0.00000835410000","RA_OF_ASC_NODE":"132.7692","REV_AT_EPOCH":"6903","MEAN_ANOMALY":"286.0143","COUNTRY_CODE":"US","SEMIMAJOR_AXIS":"6925.373","PERIOD":"95.593","MEAN_MOTION":"15.06392142","APOAPSIS":"548.439","TIME_SYSTEM":"UTC","OBJECT_ID":"2021-038U","FILE":"3528364","ELEMENT_SET_NO":"999","MEAN_ELEMENT_THEORY":"SGP4","NORAD_CAT_ID":"48371","SITE":"AFETR","CLASSIFICATION_TYPE":"U","TLE_LINE1":"1 48371U 21038U   22215.16400072 -.00000157  00000-0  83541-5 0  9999","OBJECT_TYPE":"PAYLOAD","GP_ID":"209493023","RCS_SIZE":"LARGE","TLE_LINE2":"2 48371  53.0552 132.7692 0001735  74.1037 286.0143 15.06392142 69038","CENTER_NAME":"EARTH","PERIAPSIS":"546.036","OBJECT_NAME":"STARLINK-2589"},{"SEMIMAJOR_AXIS":"6925.332","PERIOD":"95.592","ELEMENT_SET_NO":"999","FILE":"3528364","OBJECT_ID":"2021-038V","APOAPSIS":"548.720","MEAN_MOTION":"15.06405456","TIME_SYSTEM":"UTC","NORAD_CAT_ID":"48372","SITE":"AFETR","MEAN_ELEMENT_THEORY":"SGP4","OBJECT_TYPE":"PAYLOAD","TLE_LINE1":"1 48372U 21038V   22215.16030455  .00000647  00000-0  62333-4 0  9992","CLASSIFICATION_TYPE":"U","GP_ID":"209493273","RCS_SIZE":"LARGE","OBJECT_NAME":"STARLINK-2572","PERIAPSIS":"545.674","CENTER_NAME":"EARTH","TLE_LINE2":"2 48372  53.0553 132.7847 0002199  69.5025 290.6200 15.06405456 69030","EPOCH":"2022-08-03T03:50:50.313120","LAUNCH_DATE":"2021-05-04","ARG_OF_PERICENTER":"69.5025","MEAN_MOTION_DOT":"0.00000647","REF_FRAME":"TEME","INCLINATION":"53.0553","EPHEMERIS_TYPE":"0","ECCENTRICITY":"0.00021990","BSTAR":"0.00006233300000","DECAY_DATE":null,"MEAN_MOTION_DDOT":"0.0000000000000","REV_AT_EPOCH":"6903","RA_OF_ASC_NODE":"132.7847","COUNTRY_CODE":"US","MEAN_ANOMALY":"290.6200"},{"PERIOD":"95.592","SEMIMAJOR_AXIS":"6925.359","APOAPSIS":"548.361","MEAN_MOTION":"15.06396576","TIME_SYSTEM":"UTC","FILE":"3528364","OBJECT_ID":"2021-038W","ELEMENT_SET_NO":"999","MEAN_ELEMENT_THEORY":"SGP4","NORAD_CAT_ID":"48373","SITE":"AFETR","TLE_LINE1":"1 48373U 21038W   22215.15662334  .00000370  00000-0  43737-4 0  9999","CLASSIFICATION_TYPE":"U","OBJECT_TYPE":"PAYLOAD","GP_ID":"209493524","RCS_SIZE":"LARGE","PERIAPSIS":"546.088","CENTER_NAME":"EARTH","TLE_LINE2":"2 48373  53.0537 132.7892 0001641  81.4883 278.6291 15.06396576 69037","OBJECT_NAME":"STARLINK-2609","LAUNCH_DATE":"2021-05-04","EPOCH":"2022-08-03T03:45:32.256576","ARG_OF_PERICENTER":"81.4883","EPHEMERIS_TYPE":"0","INCLINATION":"53.0537","MEAN_MOTION_DOT":"0.00000370","REF_FRAME":"TEME","ECCENTRICITY":"0.00016410","DECAY_DATE":null,"BSTAR":"0.00004373700000","MEAN_MOTION_DDOT":"0.0000000000000","RA_OF_ASC_NODE":"132.7892","REV_AT_EPOCH":"6903","MEAN_ANOMALY":"278.6291","COUNTRY_CODE":"US"}];
